MALLIGYONG-1            
1 58400U 23179A   24033.60870040  .00005674  00000+0  24932-3 0  9990
2 58400  97.4228 282.4333 0016581  27.8501 332.3619 15.22184268 11109
